#dP2024  1  9 12  0  0.00000000      96 __u+U IGS20 EXT  IAC
## 2296 216000.00000000   900.00000000 60318 0.5000000000000
+  117   C06C07C08C09C10C11C12C13C14C16C19C20C21C22C23C24C25
+        C26C27C28C29C30C32C33C34C35C36C37C38C39C40C41C42C43
+        C44C45C46E02E03E04E05E07E08E09E10E11E12E13E14E15E18
+        E19E21E24E25E26E27E30E31E33E34E36G01G02G03G04G05G06
+        G07G08G09G10G11G12G13G14G15G16G17G18G19G20G21G22G23
+        G24G25G26G28G29G30G31G32J02J04R01R02R03R04R05R07R08
+        R09R11R12R13R14R15R16R17R18R19R20R21R22R24R25  0  0
++         9  9  8  9  9 10  9 10 10  9  9  9  9  8  8  7  8
++         8  8 10  9  9 10 10  9  7  9  8 10 11  9 11 10  7
++         8  7  8  7  7  8  8  7  7  7  8  8  8  7  7  7  9
++         8  7  8  7  7  8  8  8  7  7  8  8  7  8  6  8  8
++         6  8  7  7  7  7  7  7  6  7  8  7  7  8  7  7  7
++         8  7  7  7  7  7  7  7 10 10  9  8  7  9  9  8  8
++         8  8  8  9  8  7  9  7  9  8 10  8  7  7  8  0  0
%c M  cc GPS ccc cccc cccc cccc cccc ccccc ccccc ccccc ccccc
%c cc cc ccc ccc cccc cccc cccc cccc ccccc ccccc ccccc ccccc
%f  0.0000000  0.000000000  0.00000000000  0.000000000000000
%f  0.0000000  0.000000000  0.00000000000  0.000000000000000
%i    0    0    0    0      0      0      0      0         0
%i    0    0    0    0      0      0      0      0         0
/* IAC                                ULTRA-RAPID PREDICTION
/* S/V CLOCKS ARE ALIGNED TO GNSS TIME                      
/* G:C1WC2W R:C1PC2P E:C1XC5X C:C2IC6I J:C1CC2S             
/* PCV:IGS20_2290 OL/AL:FES2004  NONE     YN ORB:CoN CLK:CoN
*  2024 01 10  5 30  0.00000000
PC06 -18076.427181  27246.578413  26490.165267     39.194652
PC07  -7129.392983  41019.427347   7360.065919   -613.400691
PC08    895.960014  24388.155610 -34317.059473    122.971900
PC09  -6777.422761  26492.700586  32354.936882   -332.682193
PC10  -2464.001748  42345.980741   2209.982465    131.866763
PC11  16918.293259 -20295.807317   9040.259230    350.487307
PC12  23991.287502 -10745.273016  -9323.984437    800.655386
PC13   7220.245480  27751.424869 -30643.588886    405.797745
PC14   6196.510793 -23056.892941  14418.770417    -65.376290
PC16 -18168.770459  27029.054801  26852.826624   -273.147829
PC19    218.303616  27243.421686  -6060.065629   -939.892018
PC20 -10654.250599  16867.208765 -19511.636900    -51.295973
PC21  16055.556239   4803.447631  22331.845269   -964.618158
PC22  11550.321615  22592.105438  11637.257495   -153.453032
PC23 -17998.639971 -16925.627282 -12989.900850   -792.121609
PC24  19564.529104  -6972.628784 -18647.301184    775.369210
PC25    -13.208178 -16966.795629 -22174.117711    298.297791
PC26  26843.411512   5923.431671  -4713.709169   -232.572317
PC27 -22432.943600   3398.330527  16222.865975    254.589576
PC28 -11498.444001 -11235.498350  22817.887640    193.061814
PC29  -7931.462786  21565.226187 -15834.524806    226.146936
PC30 -21641.775909  17552.552273   1252.696011    -14.168343
PC32 -16091.064905  -4774.291169 -22277.716066   -551.945937
PC33   -285.752929 -27202.602002   6197.296612   -942.716879
PC34  21048.591314 -18341.473727    209.725035    343.862579
PC35  11977.966260  10847.959106 -22761.308551    460.770533
PC36  -1172.945437  16754.369247  22296.275461    -58.565692
PC37 -26722.383409  -6949.676148   4155.399904   -931.626664
PC38  -8176.372060  21731.472350 -35119.939319    129.517601
PC39 -24332.036928  27337.285407  20773.253923     -6.569532
PC40 -13206.737087  38703.379024  10803.061564    -51.446939
PC41 -11254.307969 -23076.306148 -10873.826423   -878.595746
PC42  11484.482584 -15329.096515  20329.964140   -467.844846
PC43   8782.920506 -21760.323571  15114.249258     55.797060
PC44  22319.773784  -4022.714224 -16293.298183    349.215808
PC45  18278.841337  16782.689619  12727.053516    -61.929029
PC46 -18812.779609   7474.555349  19212.772383   -114.431949
PE02  -5755.986503  18478.526789  22380.287736     93.797796
PE03 -13510.078777  26235.623256  -2357.859657    -86.000991
PE04   -630.136192 -25201.763615 -15512.348582   -300.130566
PE05 -19619.342626  11993.692805 -18635.838028   4708.870551
PE07  14087.421511   9809.095637  24116.801366    -97.606340
PE08     63.920908  25467.046607  15088.399397   -205.650669
PE09 -13898.836603  -9864.718100 -24201.007493   -294.101478
PE10 -16451.852982 -12107.374590  21424.566915   -592.988515
PE11 -25085.177519  -6672.327641  14210.801645   3280.660750
PE12  -6266.268075 -15318.005891  24543.174132   -856.182280
PE13  24656.279454   7002.237845 -14802.898277    -19.866458
PE14   7562.654389  23366.691987 -20505.307143      6.240520
PE15   5680.970519  15339.185790 -24657.525916    -79.363419
PE18 -13033.024130  -9308.830130  18802.051324    193.669799
PE19  14854.419530 -25194.017786   4590.027065   -842.684309
PE21  18707.914060  -1038.271956 -22919.431192   -573.138123
PE24 -21226.506912 -18240.668146   9662.469255   -533.738276
PE25 -18894.010446    613.330210  22779.469320     -0.734179
PE26  28745.504423  -5705.161861   4178.923643    334.906741
PE27  21364.057562  17813.726729 -10100.425465   -245.615899
PE30  11098.728346  25993.619183   8744.116720   -812.266024
PE31 -11403.187635 -25957.571733  -8524.776563    -13.454326
PE33  16891.850278 -14405.731709  19586.012366      5.695143
PE34 -16321.847529  14597.086441 -19916.939231    -88.154901
PE36 -28906.869828   5274.949788  -3519.845845   -169.736303
PG01   9922.605919  13119.935481 -21285.862304    165.711701
PG02   2164.865820  14688.997125 -21519.947815   -503.096603
PG03  10471.501652  23216.443019  -7888.056934    115.796480
PG04   1670.384314  21423.314410  15532.595670    262.193071
PG05  -1465.761373 -20236.210595  16917.582409   -157.396974
PG06  25098.373780  -6499.120775   6081.542726    449.884196
PG07  22580.224272   6931.197385  13087.639784    -33.593924
PG08  -3745.395888  24800.207229  -8141.161344   -161.320866
PG09  11337.286933  11385.638411  21055.551697     54.033206
PG10 -18331.313159  -3761.648099 -18778.317301    -68.736617
PG11  17914.459528 -11908.011477  15571.867278   -534.260424
PG12  -8683.459615 -23958.082594  -7902.936697   -466.352234
PG13  13352.058677 -22810.789413   -893.304531    614.370820
PG14  19545.331552   7278.987557 -16526.263350    294.594778
PG15    558.918961 -25287.859823  -8225.607974    115.700400
PG16  -6322.239204  16032.097756  19750.895845   -387.188408
PG17  16845.311680  -3015.465943 -19923.449243    720.230545
PG18 -23311.319101  -5732.961405  11578.725828   -528.388995
PG19  18496.728505 -11222.658889 -15352.196084    424.465602
PG20   9908.435392 -11869.876948  21658.151999    392.289859
PG21  -2262.002119  15351.876740 -20920.592621    138.886756
PG22  16481.502481   -109.189735 -20330.416701     50.847676
PG23 -19923.022278 -14656.212929  -9914.581780    132.427712
PG24  -1358.543386 -16003.789683 -21537.901669   -410.929891
PG25 -17255.171970 -20242.898549   2087.679028    484.722178
PG26 -13679.639390   8163.366977  21132.710852    201.711321
PG28 -25752.936484   5790.527245   2894.390258    -94.295645
PG29  -9248.373149 -13140.123904  21082.413424   -608.890538
PG30  26532.530770   -538.573190   3116.889852   -447.264454
PG31 -22082.831880   9922.855321  11170.665391   -227.201329
PG32 -17200.486193   7096.406892 -18678.510279   -603.891826
PJ02 -26533.686139  22395.138831  29043.724297     -1.069906
PJ04 -18260.020830  31437.686869 -16361.871880     76.433231
PR01   9810.793547  11542.179521  20527.391649     74.204613
PR02  10511.030843  -7682.482215  21994.293258    -22.386835
PR03   5544.787652 -22542.581368  10692.681772     92.457301
PR04  -2071.208670 -24665.210095  -6178.355197    218.784219
PR05  -8665.512539 -13632.980007 -19740.175338    125.129204
PR07  -5159.287160  22933.343457  -9795.211441     73.239774
PR08   2460.920217  24530.682378   6530.237613    -73.959854
PR09 -19350.367895  -1544.933554  16516.421460    163.542607
PR11  10272.692408  15635.392870  17352.125504   -226.340549
PR12  21922.683662  13020.451157   -224.379614     35.428620
PR13  20403.029115   3623.653867 -14890.752940    -43.149614
PR14   5580.323586  -9657.293036 -22935.728862     25.908581
PR15 -11376.376898 -15989.406030 -16284.078147     83.219917
PR16 -21925.416737 -13004.736230    -51.331917     22.323822
PR17  16330.873160 -15211.047580  12333.598721     51.011575
PR18   1616.487133 -12238.089047  22352.235558    121.336540
PR19 -12752.646990  -4505.669062  21633.168461   -261.488745
PR20 -23322.168360   8352.248422   6001.939397   -106.573783
PR21 -16208.300088  15076.125289 -12688.795057    -67.742953
PR22   -682.330344  12114.209179 -22404.062953    102.426014
PR24  23047.227981  -9526.208380  -5310.598718    -39.306596
PR25 -16872.214976  14669.450555 -12287.228676     27.007771
EOF
